start=new Date('2021-10-10T00:00:00.000Z').valueOf();
sats=[{"RA_OF_ASC_NODE":"358.5382","ELEMENT_SET_NO":"999","EPHEMERIS_TYPE":"0","OBJECT_TYPE":"PAYLOAD","MEAN_MOTION":"15.06394106","PERIOD":"95.593","EPOCH":"2021-10-09T14:30:35.330112","TIME_SYSTEM":"UTC","GP_ID":"186728733","SITE":"AFETR","RCS_SIZE":"LARGE","OBJECT_ID":"2020-074G","INCLINATION":"53.0563","APOAPSIS":"548.003","MEAN_ELEMENT_THEORY":"SGP4","COUNTRY_CODE":"US","SEMIMAJOR_AXIS":"6925.367","BSTAR":"-0.00005260800000","TLE_LINE1":"1 46745U 20074G   21282.60457558 -.00001065  00000-0 -52608-4 0  9993","LAUNCH_DATE":"2020-10-24","ECCENTRICITY":"0.00011140","OBJECT_NAME":"STARLINK-1898","DECAY_DATE":null,"PERIAPSIS":"546.460","REV_AT_EPOCH":"5369","FILE":"3153808","NORAD_CAT_ID":"46745","TLE_LINE2":"2 46745  53.0563 358.5382 0001114  99.6519 260.4596 15.06394106 53690","REF_FRAME":"TEME","MEAN_MOTION_DOT":"-0.00001065","CLASSIFICATION_TYPE":"U","MEAN_ANOMALY":"260.4596","CENTER_NAME":"EARTH","MEAN_MOTION_DDOT":"0.0000000000000","ARG_OF_PERICENTER":"99.6519"},{"APOAPSIS":"548.098","GP_ID":"186729480","SITE":"AFETR","OBJECT_ID":"2020-074H","RCS_SIZE":"LARGE","INCLINATION":"53.0562","SEMIMAJOR_AXIS":"6925.345","TLE_LINE1":"1 46746U 20074H   21282.59719132  .00000206  00000-0  32734-4 0  9993","BSTAR":"0.00003273400000","MEAN_ELEMENT_THEORY":"SGP4","COUNTRY_CODE":"US","ELEMENT_SET_NO":"999","OBJECT_TYPE":"PAYLOAD","EPHEMERIS_TYPE":"0","RA_OF_ASC_NODE":"358.5743","EPOCH":"2021-10-09T14:19:57.330048","TIME_SYSTEM":"UTC","PERIOD":"95.592","MEAN_MOTION":"15.06401006","CLASSIFICATION_TYPE":"U","NORAD_CAT_ID":"46746","TLE_LINE2":"2 46746  53.0562 358.5743 0001282  90.4002 269.7134 15.06401006 53691","REF_FRAME":"TEME","MEAN_MOTION_DOT":"0.00000206","ARG_OF_PERICENTER":"90.4002","MEAN_ANOMALY":"269.7134","CENTER_NAME":"EARTH","MEAN_MOTION_DDOT":"0.0000000000000","OBJECT_NAME":"STARLINK-1905","ECCENTRICITY":"0.00012820","DECAY_DATE":null,"LAUNCH_DATE":"2020-10-24","FILE":"3153808","PERIAPSIS":"546.323","REV_AT_EPOCH":"5369"},{"GP_ID":"186727733","INCLINATION":"53.0554","RCS_SIZE":"LARGE","OBJECT_ID":"2020-074J","SITE":"AFETR","APOAPSIS":"547.983","COUNTRY_CODE":"US","MEAN_ELEMENT_THEORY":"SGP4","TLE_LINE1":"1 46747U 20074J   21282.57876103  .00000174  00000-0  30585-4 0  9990","BSTAR":"0.00003058500000","SEMIMAJOR_AXIS":"6925.359","RA_OF_ASC_NODE":"358.6599","ELEMENT_SET_NO":"999","OBJECT_TYPE":"PAYLOAD","EPHEMERIS_TYPE":"0","MEAN_MOTION":"15.06396467","PERIOD":"95.592","EPOCH":"2021-10-09T13:53:24.952992","TIME_SYSTEM":"UTC","REF_FRAME":"TEME","TLE_LINE2":"2 46747  53.0554 358.6599 0001096  95.5841 264.5273 15.06396467 53694","NORAD_CAT_ID":"46747","MEAN_MOTION_DOT":"0.00000174","CLASSIFICATION_TYPE":"U","MEAN_ANOMALY":"264.5273","CENTER_NAME":"EARTH","MEAN_MOTION_DDOT":"0.0000000000000","ARG_OF_PERICENTER":"95.5841","LAUNCH_DATE":"2020-10-24","OBJECT_NAME":"STARLINK-1908","ECCENTRICITY":"0.00010960","DECAY_DATE":null,"PERIAPSIS":"546.465","REV_AT_EPOCH":"5369","FILE":"3153808"},{"MEAN_MOTION":"15.06391238","PERIOD":"95.593","TIME_SYSTEM":"UTC","EPOCH":"2021-10-09T12:28:30.797760","RA_OF_ASC_NODE":"358.9354","EPHEMERIS_TYPE":"0","OBJECT_TYPE":"PAYLOAD","ELEMENT_SET_NO":"999","MEAN_ELEMENT_THEORY":"SGP4","COUNTRY_CODE":"US","SEMIMAJOR_AXIS":"6925.375","BSTAR":"-0.00010721000000","TLE_LINE1":"1 46748U 20074K   21282.51980090 -.00001877  00000-0 -10721-3 0  9998","SITE":"AFETR","OBJECT_ID":"2020-074K","RCS_SIZE":"LARGE","INCLINATION":"53.0574","GP_ID":"186727978","APOAPSIS":"547.678","REV_AT_EPOCH":"5368","PERIAPSIS":"546.803","FILE":"3153808","LAUNCH_DATE":"2020-10-24","DECAY_DATE":null,"OBJECT_NAME":"STARLINK-1910","ECCENTRICITY":"0.00006320","MEAN_MOTION_DDOT":"0.0000000000000","MEAN_ANOMALY":"318.6809","CENTER_NAME":"EARTH","ARG_OF_PERICENTER":"41.4227","MEAN_MOTION_DOT":"-0.00001877","NORAD_CAT_ID":"46748","TLE_LINE2":"2 46748  53.0574 358.9354 0000632  41.4227 318.6809 15.06391238 53688","REF_FRAME":"TEME","CLASSIFICATION_TYPE":"U"},{"PERIOD":"95.592","MEAN_MOTION":"15.06396181","TIME_SYSTEM":"UTC","EPOCH":"2021-10-09T14:14:39.012576","RA_OF_ASC_NODE":"358.5976","EPHEMERIS_TYPE":"0","OBJECT_TYPE":"PAYLOAD","ELEMENT_SET_NO":"999","COUNTRY_CODE":"US","MEAN_ELEMENT_THEORY":"SGP4","TLE_LINE1":"1 46749U 20074L   21282.59350709  .00000591  00000-0  58573-4 0  9993","BSTAR":"0.00005857300000","SEMIMAJOR_AXIS":"6925.360","INCLINATION":"53.0565","RCS_SIZE":"LARGE","OBJECT_ID":"2020-074L","SITE":"AFETR","GP_ID":"186729233","APOAPSIS":"547.948","REV_AT_EPOCH":"5369","PERIAPSIS":"546.502","FILE":"3153808","LAUNCH_DATE":"2020-10-24","DECAY_DATE":null,"ECCENTRICITY":"0.00010440","OBJECT_NAME":"STARLINK-1911","MEAN_MOTION_DDOT":"0.0000000000000","CENTER_NAME":"EARTH","MEAN_ANOMALY":"269.3000","ARG_OF_PERICENTER":"90.8108","MEAN_MOTION_DOT":"0.00000591","REF_FRAME":"TEME","NORAD_CAT_ID":"46749","TLE_LINE2":"2 46749  53.0565 358.5976 0001044  90.8108 269.3000 15.06396181 53697","CLASSIFICATION_TYPE":"U"},{"MEAN_MOTION_DDOT":"0.0000000000000","CENTER_NAME":"EARTH","MEAN_ANOMALY":"267.4991","ARG_OF_PERICENTER":"92.6144","MEAN_MOTION_DOT":"-0.00002083","REF_FRAME":"TEME","TLE_LINE2":"2 46751  53.0572 358.9227 0001275  92.6144 267.4991 15.06386201 53686","NORAD_CAT_ID":"46751","CLASSIFICATION_TYPE":"U","REV_AT_EPOCH":"5368","PERIAPSIS":"546.373","FILE":"3153808","LAUNCH_DATE":"2020-10-24","DECAY_DATE":null,"OBJECT_NAME":"STARLINK-1920","ECCENTRICITY":"0.00012750","COUNTRY_CODE":"US","MEAN_ELEMENT_THEORY":"SGP4","TLE_LINE1":"1 46751U 20074N   21282.52348768 -.00002083  00000-0 -12104-3 0  9990","BSTAR":"-0.00012104000000","SEMIMAJOR_AXIS":"6925.391","RCS_SIZE":"LARGE","OBJECT_ID":"2020-074N","INCLINATION":"53.0572","SITE":"AFETR","GP_ID":"186728981","APOAPSIS":"548.139","PERIOD":"95.593","MEAN_MOTION":"15.06386201","TIME_SYSTEM":"UTC","EPOCH":"2021-10-09T12:33:49.335552","RA_OF_ASC_NODE":"358.9227","EPHEMERIS_TYPE":"0","OBJECT_TYPE":"PAYLOAD","ELEMENT_SET_NO":"999"},{"MEAN_ANOMALY":"188.5889","CENTER_NAME":"EARTH","MEAN_MOTION_DDOT":"0.0000000000000","ARG_OF_PERICENTER":"171.5104","REF_FRAME":"TEME","TLE_LINE2":"2 46752  53.0548 358.5793 0000244 171.5104 188.5889 15.06393696 53698","NORAD_CAT_ID":"46752","MEAN_MOTION_DOT":"-0.00001589","CLASSIFICATION_TYPE":"U","PERIAPSIS":"547.064","REV_AT_EPOCH":"5369","FILE":"3153808","LAUNCH_DATE":"2020-10-24","OBJECT_NAME":"STARLINK-1921","ECCENTRICITY":"0.00002440","DECAY_DATE":null,"COUNTRY_CODE":"US","MEAN_ELEMENT_THEORY":"SGP4","TLE_LINE1":"1 46752U 20074P   21282.60088925 -.00001589  00000-0 -87847-4 0  9993","BSTAR":"-0.00008784700000","SEMIMAJOR_AXIS":"6925.368","GP_ID":"186728233","RCS_SIZE":"LARGE","OBJECT_ID":"2020-074P","INCLINATION":"53.0548","SITE":"AFETR","APOAPSIS":"547.402","MEAN_MOTION":"15.06393696","PERIOD":"95.593","EPOCH":"2021-10-09T14:25:16.831200","TIME_SYSTEM":"UTC","RA_OF_ASC_NODE":"358.5793","ELEMENT_SET_NO":"999","EPHEMERIS_TYPE":"0","OBJECT_TYPE":"PAYLOAD"},{"LAUNCH_DATE":"2020-10-24","OBJECT_NAME":"STARLINK-1922","ECCENTRICITY":"0.00010960","DECAY_DATE":null,"PERIAPSIS":"546.488","REV_AT_EPOCH":"5370","FILE":"3153808","REF_FRAME":"TEME","TLE_LINE2":"2 46753  53.0561 358.4153 0001096 103.6242 256.4869 15.06389213 53703","NORAD_CAT_ID":"46753","MEAN_MOTION_DOT":"-0.00002152","CLASSIFICATION_TYPE":"U","MEAN_ANOMALY":"256.4869","CENTER_NAME":"EARTH","MEAN_MOTION_DDOT":"0.0000000000000","ARG_OF_PERICENTER":"103.6242","RA_OF_ASC_NODE":"358.4153","ELEMENT_SET_NO":"999","OBJECT_TYPE":"PAYLOAD","EPHEMERIS_TYPE":"0","PERIOD":"95.593","MEAN_MOTION":"15.06389213","EPOCH":"2021-10-09T15:13:03.426816","TIME_SYSTEM":"UTC","GP_ID":"186728478","RCS_SIZE":"LARGE","OBJECT_ID":"2020-074Q","INCLINATION":"53.0561","SITE":"AFETR","APOAPSIS":"548.006","COUNTRY_CODE":"US","MEAN_ELEMENT_THEORY":"SGP4","BSTAR":"-0.00012570000000","TLE_LINE1":"1 46753U 20074Q   21282.63406744 -.00002152  00000-0 -12570-3 0  9997","SEMIMAJOR_AXIS":"6925.382"},{"PERIAPSIS":"546.402","REV_AT_EPOCH":"5370","FILE":"3153808","LAUNCH_DATE":"2020-10-24","ECCENTRICITY":"0.00011840","OBJECT_NAME":"STARLINK-1923","DECAY_DATE":null,"CENTER_NAME":"EARTH","MEAN_ANOMALY":"269.8783","MEAN_MOTION_DDOT":"0.0000000000000","ARG_OF_PERICENTER":"90.2342","REF_FRAME":"TEME","NORAD_CAT_ID":"46754","TLE_LINE2":"2 46754  53.0550 358.3879 0001184  90.2342 269.8783 15.06397292 53705","MEAN_MOTION_DOT":"0.00000777","CLASSIFICATION_TYPE":"U","PERIOD":"95.592","MEAN_MOTION":"15.06397292","EPOCH":"2021-10-09T15:23:38.867712","TIME_SYSTEM":"UTC","RA_OF_ASC_NODE":"358.3879","ELEMENT_SET_NO":"999","EPHEMERIS_TYPE":"0","OBJECT_TYPE":"PAYLOAD","COUNTRY_CODE":"US","MEAN_ELEMENT_THEORY":"SGP4","TLE_LINE1":"1 46754U 20074R   21282.64142208  .00000777  00000-0  71068-4 0  9998","BSTAR":"0.00007106800000","SEMIMAJOR_AXIS":"6925.357","GP_ID":"186728734","INCLINATION":"53.0550","RCS_SIZE":"LARGE","OBJECT_ID":"2020-074R","SITE":"AFETR","APOAPSIS":"548.042"},{"MEAN_MOTION_DDOT":"0.0000000000000","MEAN_ANOMALY":"257.9962","CENTER_NAME":"EARTH","ARG_OF_PERICENTER":"102.1183","MEAN_MOTION_DOT":"-0.00000634","TLE_LINE2":"2 46755  53.0562   3.3708 0001392 102.1183 257.9962 15.06400796 53637","NORAD_CAT_ID":"46755","REF_FRAME":"TEME","CLASSIFICATION_TYPE":"U","REV_AT_EPOCH":"5363","PERIAPSIS":"546.247","FILE":"3153808","LAUNCH_DATE":"2020-10-24","DECAY_DATE":null,"OBJECT_NAME":"STARLINK-1924","ECCENTRICITY":"0.00013920","MEAN_ELEMENT_THEORY":"SGP4","COUNTRY_CODE":"US","SEMIMAJOR_AXIS":"6925.346","TLE_LINE1":"1 46755U 20074S   21282.64649266 -.00000634  00000-0 -23644-4 0  9996","BSTAR":"-0.00002364400000","SITE":"AFETR","RCS_SIZE":"LARGE","INCLINATION":"53.0562","OBJECT_ID":"2020-074S","GP_ID":"186729481","APOAPSIS":"548.175","PERIOD":"95.592","MEAN_MOTION":"15.06400796","TIME_SYSTEM":"UTC","EPOCH":"2021-10-09T15:30:56.965824","RA_OF_ASC_NODE":"3.3708","EPHEMERIS_TYPE":"0","OBJECT_TYPE":"PAYLOAD","ELEMENT_SET_NO":"999"}];
